{
  "links" : {
    "next" : "https://api.nasa.gov/neo/rest/v1/feed?start_date=1999-12-09&end_date=1999-12-09&detailed=true&api_key=t0TVs3DtDT2H8Oy2Zy8m2eVrNsAVKAexjcZXUckd",
    "prev" : "https://api.nasa.gov/neo/rest/v1/feed?start_date=1999-12-07&end_date=1999-12-07&detailed=true&api_key=t0TVs3DtDT2H8Oy2Zy8m2eVrNsAVKAexjcZXUckd",
    "self" : "https://api.nasa.gov/neo/rest/v1/feed?start_date=1999-12-08&end_date=1999-12-08&detailed=true&api_key=t0TVs3DtDT2H8Oy2Zy8m2eVrNsAVKAexjcZXUckd"
  },
  "element_count" : 4,
  "near_earth_objects" : {
    "1999-12-08" : [ {
      "links" : {
        "self" : "https://api.nasa.gov/neo/rest/v1/neo/3091994?api_key=t0TVs3DtDT2H8Oy2Zy8m2eVrNsAVKAexjcZXUckd"
      },
      "neo_reference_id" : "3091994",
      "name" : "(2001 QF96)",
      "nasa_jpl_url" : "http://ssd.jpl.nasa.gov/sbdb.cgi?sstr=3091994",
      "absolute_magnitude_h" : 24.5,
      "estimated_diameter" : {
        "kilometers" : {
          "estimated_diameter_min" : 0.0334622374,
          "estimated_diameter_max" : 0.0748238376
        },
        "meters" : {
          "estimated_diameter_min" : 33.4622374455,
          "estimated_diameter_max" : 74.8238376074
        },
        "miles" : {
          "estimated_diameter_min" : 0.0207924639,
          "estimated_diameter_max" : 0.0464933628
        },
        "feet" : {
          "estimated_diameter_min" : 109.7842471007,
          "estimated_diameter_max" : 245.4850393757
        }
      },
      "is_potentially_hazardous_asteroid" : false,
      "close_approach_data" : [ {
        "close_approach_date" : "1999-12-08",
        "epoch_date_close_approach" : 944640000000,
        "relative_velocity" : {
          "kilometers_per_second" : "16.0927877254",
          "kilometers_per_hour" : "57934.0358115703",
          "miles_per_hour" : "35997.9568630282"
        },
        "miss_distance" : {
          "astronomical" : "0.3573997067",
          "lunar" : "139.0284881592",
          "kilometers" : "53466236",
          "miles" : "33222378"
        },
        "orbiting_body" : "Earth"
      } ],
      "orbital_data" : {
        "orbit_id" : "16",
        "orbit_determination_date" : "2017-04-06 09:16:12",
        "orbit_uncertainty" : "7",
        "minimum_orbit_intersection" : ".031923",
        "jupiter_tisserand_invariant" : "4.377",
        "epoch_osculation" : "2458000.5",
        "eccentricity" : ".3629198231973139",
        "semi_major_axis" : "1.544872607148224",
        "inclination" : "6.650770897593273",
        "ascending_node_longitude" : "158.8331867026744",
        "orbital_period" : "701.3542543457226",
        "perihelion_distance" : ".9842077136996171",
        "perihelion_argument" : "224.2911670294864",
        "aphelion_distance" : "2.105537500596831",
        "perihelion_time" : "2457805.331182212817",
        "mean_anomaly" : "100.178724186867",
        "mean_motion" : ".5132926730954755",
        "equinox" : "J2000"
      }
    }, {
      "links" : {
        "self" : "https://api.nasa.gov/neo/rest/v1/neo/3263233?api_key=t0TVs3DtDT2H8Oy2Zy8m2eVrNsAVKAexjcZXUckd"
      },
      "neo_reference_id" : "3263233",
      "name" : "(2004 XJ)",
      "nasa_jpl_url" : "http://ssd.jpl.nasa.gov/sbdb.cgi?sstr=3263233",
      "absolute_magnitude_h" : 24.0,
      "estimated_diameter" : {
        "kilometers" : {
          "estimated_diameter_min" : 0.0421264611,
          "estimated_diameter_max" : 0.0941976306
        },
        "meters" : {
          "estimated_diameter_min" : 42.1264610556,
          "estimated_diameter_max" : 94.1976305719
        },
        "miles" : {
          "estimated_diameter_min" : 0.0261761612,
          "estimated_diameter_max" : 0.0585316759
        },
        "feet" : {
          "estimated_diameter_min" : 138.2101784897,
          "estimated_diameter_max" : 309.0473542854
        }
      },
      "is_potentially_hazardous_asteroid" : false,
      "close_approach_data" : [ {
        "close_approach_date" : "1999-12-08",
        "epoch_date_close_approach" : 944640000000,
        "relative_velocity" : {
          "kilometers_per_second" : "6.9942210309",
          "kilometers_per_hour" : "25179.1957111824",
          "miles_per_hour" : "15645.3730239844"
        },
        "miss_distance" : {
          "astronomical" : "0.0582717453",
          "lunar" : "22.6677093506",
          "kilometers" : "8717329",
          "miles" : "5416697.5"
        },
        "orbiting_body" : "Earth"
      } ],
      "orbital_data" : {
        "orbit_id" : "15",
        "orbit_determination_date" : "2017-04-06 09:11:51",
        "orbit_uncertainty" : "6",
        "minimum_orbit_intersection" : ".0433962",
        "jupiter_tisserand_invariant" : "6.658",
        "epoch_osculation" : "2458000.5",
        "eccentricity" : ".170158261511884",
        "semi_major_axis" : ".887631106155181",
        "inclination" : "12.18214412441104",
        "ascending_node_longitude" : "253.3006028031786",
        "orbital_period" : "305.4549706278242",
        "perihelion_distance" : ".7365933402679449",
        "perihelion_argument" : "16.07500192541708",
        "aphelion_distance" : "1.038668872042417",
        "perihelion_time" : "2458097.485801123521",
        "mean_anomaly" : "245.695464923342",
        "mean_motion" : "1.178569788077324",
        "equinox" : "J2000"
      }
    }, {
      "links" : {
        "self" : "https://api.nasa.gov/neo/rest/v1/neo/3671131?api_key=t0TVs3DtDT2H8Oy2Zy8m2eVrNsAVKAexjcZXUckd"
      },
      "neo_reference_id" : "3671131",
      "name" : "(2014 JN57)",
      "nasa_jpl_url" : "http://ssd.jpl.nasa.gov/sbdb.cgi?sstr=3671131",
      "absolute_magnitude_h" : 20.6,
      "estimated_diameter" : {
        "kilometers" : {
          "estimated_diameter_min" : 0.2016299194,
          "estimated_diameter_max" : 0.4508582062
        },
        "meters" : {
          "estimated_diameter_min" : 201.6299194428,
          "estimated_diameter_max" : 450.8582061718
        },
        "miles" : {
          "estimated_diameter_min" : 0.1252869847,
          "estimated_diameter_max" : 0.2801502144
        },
        "feet" : {
          "estimated_diameter_min" : 661.5155049046,
          "estimated_diameter_max" : 1479.1936371367
        }
      },
      "is_potentially_hazardous_asteroid" : false,
      "close_approach_data" : [ {
        "close_approach_date" : "1999-12-08",
        "epoch_date_close_approach" : 944640000000,
        "relative_velocity" : {
          "kilometers_per_second" : "14.7697488487",
          "kilometers_per_hour" : "53171.0958553531",
          "miles_per_hour" : "33038.4511996776"
        },
        "miss_distance" : {
          "astronomical" : "0.3967375484",
          "lunar" : "154.3309020996",
          "kilometers" : "59351092",
          "miles" : "36879060"
        },
        "orbiting_body" : "Earth"
      } ],
      "orbital_data" : {
        "orbit_id" : "13",
        "orbit_determination_date" : "2017-09-22 06:49:44",
        "orbit_uncertainty" : "1",
        "minimum_orbit_intersection" : ".0506135",
        "jupiter_tisserand_invariant" : "5.032",
        "epoch_osculation" : "2458000.5",
        "eccentricity" : ".1677696138539477",
        "semi_major_axis" : "1.243228720971036",
        "inclination" : "28.58591799287285",
        "ascending_node_longitude" : "68.29470583285125",
        "orbital_period" : "506.319878888994",
        "perihelion_distance" : "1.034652718521588",
        "perihelion_argument" : "143.7378306023089",
        "aphelion_distance" : "1.451804723420484",
        "perihelion_time" : "2457767.823597720391",
        "mean_anomaly" : "165.4359394390354",
        "mean_motion" : ".7110129683036337",
        "equinox" : "J2000"
      }
    }, {
      "links" : {
        "self" : "https://api.nasa.gov/neo/rest/v1/neo/3713903?api_key=t0TVs3DtDT2H8Oy2Zy8m2eVrNsAVKAexjcZXUckd"
      },
      "neo_reference_id" : "3713903",
      "name" : "(2015 FE33)",
      "nasa_jpl_url" : "http://ssd.jpl.nasa.gov/sbdb.cgi?sstr=3713903",
      "absolute_magnitude_h" : 19.7,
      "estimated_diameter" : {
        "kilometers" : {
          "estimated_diameter_min" : 0.3051792326,
          "estimated_diameter_max" : 0.6824015094
        },
        "meters" : {
          "estimated_diameter_min" : 305.1792325939,
          "estimated_diameter_max" : 682.4015094011
        },
        "miles" : {
          "estimated_diameter_min" : 0.1896295249,
          "estimated_diameter_max" : 0.4240245083
        },
        "feet" : {
          "estimated_diameter_min" : 1001.2442334633,
          "estimated_diameter_max" : 2238.8501681036
        }
      },
      "is_potentially_hazardous_asteroid" : false,
      "close_approach_data" : [ {
        "close_approach_date" : "1999-12-08",
        "epoch_date_close_approach" : 944640000000,
        "relative_velocity" : {
          "kilometers_per_second" : "29.5943272101",
          "kilometers_per_hour" : "106539.5779564795",
          "miles_per_hour" : "66199.550536347"
        },
        "miss_distance" : {
          "astronomical" : "0.4057991132",
          "lunar" : "157.8558654785",
          "kilometers" : "60706684",
          "miles" : "37721384"
        },
        "orbiting_body" : "Earth"
      } ],
      "orbital_data" : {
        "orbit_id" : "18",
        "orbit_determination_date" : "2017-04-06 08:35:03",
        "orbit_uncertainty" : "4",
        "minimum_orbit_intersection" : ".29314",
        "jupiter_tisserand_invariant" : "4.349",
        "epoch_osculation" : "2458000.5",
        "eccentricity" : ".6520262446525412",
        "semi_major_axis" : "1.450320181831463",
        "inclination" : "17.96319929502238",
        "ascending_node_longitude" : "324.7966983611372",
        "orbital_period" : "637.9611944249092",
        "perihelion_distance" : ".5046733601281036",
        "perihelion_argument" : "354.5332514398531",
        "aphelion_distance" : "2.395967003534823",
        "perihelion_time" : "2457854.546600886056",
        "mean_anomaly" : "82.36115948774109",
        "mean_motion" : ".5642976456029154",
        "equinox" : "J2000"
      }
    } ]
  }
}